[{"OBJECT_NAME":"TIANQI-22","OBJECT_ID":"2023-135B","EPOCH":"2026-03-09T19:41:12.033888","MEAN_MOTION":14.23087857,"ECCENTRICITY":0.00131339,"INCLINATION":49.9676,"RA_OF_ASC_NODE":210.6305,"ARG_OF_PERICENTER":271.8708,"MEAN_ANOMALY":88.07,"EPHEMERIS_TYPE":0,"CLASSIFICATION_TYPE":"U","NORAD_CAT_ID":57793,"ELEMENT_SET_NO":999,"REV_AT_EPOCH":13047,"BSTAR":9.8333486e-5,"MEAN_MOTION_DOT":6.4e-7,"MEAN_MOTION_DDOT":0},{"OBJECT_NAME":"FENGYUN 1C DEB","OBJECT_ID":"1999-025ABM","EPOCH":"2026-03-09T10:10:49.679904","MEAN_MOTION":13.83045884,"ECCENTRICITY":0.02194073,"INCLINATION":98.1015,"RA_OF_ASC_NODE":239.8026,"ARG_OF_PERICENTER":69.9044,"MEAN_ANOMALY":321.5808,"EPHEMERIS_TYPE":0,"CLASSIFICATION_TYPE":"U","NORAD_CAT_ID":30350,"ELEMENT_SET_NO":999,"REV_AT_EPOCH":96180,"BSTAR":0.00076749636,"MEAN_MOTION_DOT":9.76e-6,"MEAN_MOTION_DDOT":0}]
